[{"OBJECT_NAME":"STARLINK-36711","OBJECT_ID":"2026-041A","EPOCH":"2026-04-01T03:59:20.804064","MEAN_MOTION":15.75310189,"ECCENTRICITY":0.0003181,"INCLINATION":53.1564,"RA_OF_ASC_NODE":310.2214,"ARG_OF_PERICENTER":178.192,"MEAN_ANOMALY":181.9112,"EPHEMERIS_TYPE":0,"CLASSIFICATION_TYPE":"U","NORAD_CAT_ID":68040,"ELEMENT_SET_NO":999,"REV_AT_EPOCH":476,"BSTAR":0.0018388,"MEAN_MOTION_DOT":0.002921,"MEAN_MOTION_DDOT":0},{"OBJECT_NAME":"STARLINK-36825","OBJECT_ID":"2026-041B","EPOCH":"2026-04-01T04:00:03.999744","MEAN_MOTION":15.75219054,"ECCENTRICITY":7.03e-5,"INCLINATION":53.1572,"RA_OF_ASC_NODE":309.5875,"ARG_OF_PERICENTER":90.7887,"MEAN_ANOMALY":221.1586,"EPHEMERIS_TYPE":0,"CLASSIFICATION_TYPE":"U","NORAD_CAT_ID":68041,"ELEMENT_SET_NO":999,"REV_AT_EPOCH":599,"BSTAR":4.3907e-5,"MEAN_MOTION_DOT":6.091e-5,"MEAN_MOTION_DDOT":0},{"OBJECT_NAME":"STARLINK-36925","OBJECT_ID":"2026-041C","EPOCH":"2026-04-01T04:00:03.999744","MEAN_MOTION":15.75207658,"ECCENTRICITY":8.55e-5,"INCLINATION":53.1555,"RA_OF_ASC_NODE":310.224,"ARG_OF_PERICENTER":63.1056,"MEAN_ANOMALY":297.9371,"EPHEMERIS_TYPE":0,"CLASSIFICATION_TYPE":"U","NORAD_CAT_ID":68042,"ELEMENT_SET_NO":999,"REV_AT_EPOCH":599,"BSTAR":0.00034071,"MEAN_MOTION_DOT":0.00051837,"MEAN_MOTION_DDOT":0},{"OBJECT_NAME":"STARLINK-36902","OBJECT_ID":"2026-041D","EPOCH":"2026-04-01T02:53:59.821728","MEAN_MOTION":15.75343125,"ECCENTRICITY":5.63e-5,"INCLINATION":53.1587,"RA_OF_ASC_NODE":309.9203,"ARG_OF_PERICENTER":70.6156,"MEAN_ANOMALY":289.4925,"EPHEMERIS_TYPE":0,"CLASSIFICATION_TYPE":"U","NORAD_CAT_ID":68043,"ELEMENT_SET_NO":999,"REV_AT_EPOCH":476,"BSTAR":0.0018048,"MEAN_MOTION_DOT":0.00286914,"MEAN_MOTION_DDOT":0},{"OBJECT_NAME":"STARLINK-36966","OBJECT_ID":"2026-041E","EPOCH":"2026-04-01T03:53:17.200896","MEAN_MOTION":15.75354703,"ECCENTRICITY":0.0001038,"INCLINATION":53.1578,"RA_OF_ASC_NODE":310.1949,"ARG_OF_PERICENTER":64.4574,"MEAN_ANOMALY":295.6554,"EPHEMERIS_TYPE":0,"CLASSIFICATION_TYPE":"U","NORAD_CAT_ID":68044,"ELEMENT_SET_NO":999,"REV_AT_EPOCH":476,"BSTAR":0.002101,"MEAN_MOTION_DOT":0.00336254,"MEAN_MOTION_DDOT":0},{"OBJECT_NAME":"STARLINK-36864","OBJECT_ID":"2026-041F","EPOCH":"2026-04-01T03:52:49.082880","MEAN_MOTION":15.75379642,"ECCENTRICITY":6.52e-5,"INCLINATION":53.1581,"RA_OF_ASC_NODE":310.1924,"ARG_OF_PERICENTER":30.5863,"MEAN_ANOMALY":329.5195,"EPHEMERIS_TYPE":0,"CLASSIFICATION_TYPE":"U","NORAD_CAT_ID":68045,"ELEMENT_SET_NO":999,"REV_AT_EPOCH":476,"BSTAR":0.0020214,"MEAN_MOTION_DOT":0.00323354,"MEAN_MOTION_DDOT":0},{"OBJECT_NAME":"STARLINK-36321","OBJECT_ID":"2026-041G","EPOCH":"2026-04-01T00:10:53.214240","MEAN_MOTION":15.75270715,"ECCENTRICITY":0.0001302,"INCLINATION":53.1566,"RA_OF_ASC_NODE":310.6413,"ARG_OF_PERICENTER":47.937,"MEAN_ANOMALY":312.1761,"EPHEMERIS_TYPE":0,"CLASSIFICATION_TYPE":"U","NORAD_CAT_ID":68046,"ELEMENT_SET_NO":999,"REV_AT_EPOCH":474,"BSTAR":0.0021794,"MEAN_MOTION_DOT":0.0034804,"MEAN_MOTION_DDOT":0},{"OBJECT_NAME":"STARLINK-36181","OBJECT_ID":"2026-041H","EPOCH":"2026-04-01T00:00:02.998944","MEAN_MOTION":15.75218076,"ECCENTRICITY":0.000115,"INCLINATION":53.158,"RA_OF_ASC_NODE":310.4702,"ARG_OF_PERICENTER":56.7976,"MEAN_ANOMALY":3.6447,"EPHEMERIS_TYPE":0,"CLASSIFICATION_TYPE":"U","NORAD_CAT_ID":68047,"ELEMENT_SET_NO":999,"REV_AT_EPOCH":584,"BSTAR":0.00028267,"MEAN_MOTION_DOT":0.00042871,"MEAN_MOTION_DDOT":0},{"OBJECT_NAME":"STARLINK-36318","OBJECT_ID":"2026-041J","EPOCH":"2026-04-01T02:15:24.472800","MEAN_MOTION":15.75299896,"ECCENTRICITY":8.47e-5,"INCLINATION":53.1588,"RA_OF_ASC_NODE":310.4791,"ARG_OF_PERICENTER":42.5254,"MEAN_ANOMALY":317.5832,"EPHEMERIS_TYPE":0,"CLASSIFICATION_TYPE":"U","NORAD_CAT_ID":68048,"ELEMENT_SET_NO":999,"REV_AT_EPOCH":475,"BSTAR":0.0015592,"MEAN_MOTION_DOT":0.00246101,"MEAN_MOTION_DDOT":0},{"OBJECT_NAME":"STARLINK-36885","OBJECT_ID":"2026-041K","EPOCH":"2026-04-01T02:14:55.298112","MEAN_MOTION":15.75316665,"ECCENTRICITY":6.76e-5,"INCLINATION":53.1596,"RA_OF_ASC_NODE":310.4762,"ARG_OF_PERICENTER":129.4073,"MEAN_ANOMALY":230.7008,"EPHEMERIS_TYPE":0,"CLASSIFICATION_TYPE":"U","NORAD_CAT_ID":68049,"ELEMENT_SET_NO":999,"REV_AT_EPOCH":475,"BSTAR":0.00093092,"MEAN_MOTION_DOT":0.00145021,"MEAN_MOTION_DDOT":0},{"OBJECT_NAME":"STARLINK-36945","OBJECT_ID":"2026-041L","EPOCH":"2026-03-31T23:51:45.124992","MEAN_MOTION":15.75281936,"ECCENTRICITY":0.0001487,"INCLINATION":53.1591,"RA_OF_ASC_NODE":310.5542,"ARG_OF_PERICENTER":101.1964,"MEAN_ANOMALY":258.9223,"EPHEMERIS_TYPE":0,"CLASSIFICATION_TYPE":"U","NORAD_CAT_ID":68050,"ELEMENT_SET_NO":999,"REV_AT_EPOCH":474,"BSTAR":0.0013318,"MEAN_MOTION_DOT":0.00209025,"MEAN_MOTION_DDOT":0},{"OBJECT_NAME":"STARLINK-35911","OBJECT_ID":"2026-041M","EPOCH":"2026-03-31T23:45:12.905280","MEAN_MOTION":15.75305415,"ECCENTRICITY":8.93e-5,"INCLINATION":53.1589,"RA_OF_ASC_NODE":310.522,"ARG_OF_PERICENTER":54.0479,"MEAN_ANOMALY":306.0624,"EPHEMERIS_TYPE":0,"CLASSIFICATION_TYPE":"U","NORAD_CAT_ID":68051,"ELEMENT_SET_NO":999,"REV_AT_EPOCH":474,"BSTAR":0.00129,"MEAN_MOTION_DOT":0.00202496,"MEAN_MOTION_DDOT":0},{"OBJECT_NAME":"STARLINK-35808","OBJECT_ID":"2026-041N","EPOCH":"2026-04-01T04:45:26.656416","MEAN_MOTION":15.75274331,"ECCENTRICITY":0.0001084,"INCLINATION":53.156,"RA_OF_ASC_NODE":309.6963,"ARG_OF_PERICENTER":51.2041,"MEAN_ANOMALY":308.9076,"EPHEMERIS_TYPE":0,"CLASSIFICATION_TYPE":"U","NORAD_CAT_ID":68052,"ELEMENT_SET_NO":999,"REV_AT_EPOCH":477,"BSTAR":0.00084605,"MEAN_MOTION_DOT":0.00131282,"MEAN_MOTION_DDOT":0},{"OBJECT_NAME":"STARLINK-36919","OBJECT_ID":"2026-041P","EPOCH":"2026-03-31T23:38:40.689024","MEAN_MOTION":15.75382171,"ECCENTRICITY":1.96e-5,"INCLINATION":53.1572,"RA_OF_ASC_NODE":310.4907,"ARG_OF_PERICENTER":204.8905,"MEAN_ANOMALY":155.2106,"EPHEMERIS_TYPE":0,"CLASSIFICATION_TYPE":"U","NORAD_CAT_ID":68053,"ELEMENT_SET_NO":999,"REV_AT_EPOCH":474,"BSTAR":0.0023898,"MEAN_MOTION_DOT":0.00385319,"MEAN_MOTION_DDOT":0},{"OBJECT_NAME":"STARLINK-36924","OBJECT_ID":"2026-041Q","EPOCH":"2026-04-01T00:00:02.998944","MEAN_MOTION":15.75272423,"ECCENTRICITY":7.83e-5,"INCLINATION":53.1587,"RA_OF_ASC_NODE":310.8957,"ARG_OF_PERICENTER":72.1167,"MEAN_ANOMALY":140.4277,"EPHEMERIS_TYPE":0,"CLASSIFICATION_TYPE":"U","NORAD_CAT_ID":68054,"ELEMENT_SET_NO":999,"REV_AT_EPOCH":596,"BSTAR":-0.00072241,"MEAN_MOTION_DOT":-0.00110102,"MEAN_MOTION_DDOT":0},{"OBJECT_NAME":"STARLINK-35998","OBJECT_ID":"2026-041R","EPOCH":"2026-04-01T04:38:25.649088","MEAN_MOTION":15.75340421,"ECCENTRICITY":2.34e-5,"INCLINATION":53.1576,"RA_OF_ASC_NODE":309.6635,"ARG_OF_PERICENTER":130.2331,"MEAN_ANOMALY":229.871,"EPHEMERIS_TYPE":0,"CLASSIFICATION_TYPE":"U","NORAD_CAT_ID":68055,"ELEMENT_SET_NO":999,"REV_AT_EPOCH":477,"BSTAR":0.0015892,"MEAN_MOTION_DOT":0.00251464,"MEAN_MOTION_DDOT":0},{"OBJECT_NAME":"STARLINK-36845","OBJECT_ID":"2026-041S","EPOCH":"2026-04-01T04:31:53.845824","MEAN_MOTION":15.75301446,"ECCENTRICITY":7.21e-5,"INCLINATION":53.1585,"RA_OF_ASC_NODE":309.6341,"ARG_OF_PERICENTER":76.0127,"MEAN_ANOMALY":284.0974,"EPHEMERIS_TYPE":0,"CLASSIFICATION_TYPE":"U","NORAD_CAT_ID":68056,"ELEMENT_SET_NO":999,"REV_AT_EPOCH":477,"BSTAR":0.0006774,"MEAN_MOTION_DOT":0.00104778,"MEAN_MOTION_DDOT":0}]
